[{"OBJECT_NAME":"STARLINK-3370","OBJECT_ID":"2022-005Z","EPOCH":"2026-03-09T21:16:56.693856","MEAN_MOTION":15.08843087,"ECCENTRICITY":0.00013346,"INCLINATION":53.217,"RA_OF_ASC_NODE":298.246,"ARG_OF_PERICENTER":101.8071,"MEAN_ANOMALY":258.3071,"EPHEMERIS_TYPE":0,"CLASSIFICATION_TYPE":"U","NORAD_CAT_ID":51127,"ELEMENT_SET_NO":999,"REV_AT_EPOCH":22876,"BSTAR":-2.1629991e-5,"MEAN_MOTION_DOT":-6.32e-6,"MEAN_MOTION_DDOT":0},{"OBJECT_NAME":"COSMOS 397 DEB","OBJECT_ID":"1971-015AK","EPOCH":"2026-03-09T22:58:31.009440","MEAN_MOTION":13.69427816,"ECCENTRICITY":0.06260381,"INCLINATION":65.6843,"RA_OF_ASC_NODE":28.4631,"ARG_OF_PERICENTER":58.8288,"MEAN_ANOMALY":307.261,"EPHEMERIS_TYPE":0,"CLASSIFICATION_TYPE":"U","NORAD_CAT_ID":5156,"ELEMENT_SET_NO":999,"REV_AT_EPOCH":65184,"BSTAR":0.001612721,"MEAN_MOTION_DOT":5.69e-5,"MEAN_MOTION_DDOT":0}]
